STARLINK-36659          
1 67833U 26033N   26076.16668981 -.01923576  00000+0 -23560-1 0  9998
2 67833  42.9999 225.9827 0001793 270.0253 106.2517 15.62746054  5866
STARLINK-36655          
1 67834U 26033P   26075.83335647 -.01851097  00000+0 -26461-1 0  9993
2 67834  43.0001 228.2026 0001307 279.0114 286.5103 15.58652636  5811
STARLINK-36657          
1 67835U 26033Q   26075.83335647 -.01876477  00000+0 -22895-1 0  9990
2 67835  42.9995 228.0035 0001461 275.7850   9.1805 15.62764963  5811
STARLINK-36650          
1 67836U 26033R   26075.83335647 -.01843142  00000+0 -31004-1 0  9996
2 67836  43.0001 228.4167 0001556 284.4802 194.3218 15.54310389  5816
STARLINK-36649          
1 67837U 26033S   26075.83335647 -.01853610  00000+0 -26936-1 0  9996
2 67837  42.9999 228.1909 0001250 278.8566 290.8577 15.58227660  5810
STARLINK-36654          
1 67838U 26033T   26075.83335647 -.01851258  00000+0 -29024-1 0  9994
2 67838  42.9997 228.2861 0001352 283.5580 247.5330 15.56216324  5818
STARLINK-36652          
1 67839U 26033U   26075.83335647 -.01844411  00000+0 -30803-1 0  9995
2 67839  43.0001 228.3730 0001500 285.4728 210.7893 15.54507090  5810
STARLINK-36651          
1 67840U 26033V   26075.83335647 -.01851462  00000+0 -29223-1 0  9995
2 67840  42.9998 228.2740 0001333 283.8155 251.8495 15.56037855  5818
STARLINK-36656          
1 67841U 26033W   26075.83335647 -.01851833  00000+0 -28044-1 0  9998
2 67841  42.9997 228.2046 0001287 283.9226 280.0718 15.57137177  5816
STARLINK-36653          
1 67842U 26033X   26075.83335647 -.01851335  00000+0 -29119-1 0  9990
2 67842  42.9997 228.2481 0001320 283.3832 262.9014 15.56130867  5811
STARLINK-36589          
1 67843U 26033Y   26075.83335647 -.01856278  00000+0 -28075-1 0  9992
2 67843  42.9999 228.1808 0001268 278.8421 294.5447 15.57180125  5814
STARLINK-36598          
1 67844U 26033Z   26075.83335647 -.01843889  00000+0 -31428-1 0  9993
2 67844  43.0000 228.3516 0001524 286.8153 217.6179 15.53955196  5816
